{"fetched_at": "2026-06-04T18:22:40.356422+00:00", "line1": "1 64527U 25131D   26105.75877182 -.00000243  00000+0  00000+0 0  9993", "line2": "2 64527   0.2177  60.2939 3657276  39.3931 123.2752  1.00252337  2980"}
{"fetched_at": "2026-06-22T01:52:56.783437+00:00", "line1": "1 64527U 25131D   26171.46088404 -.00000325  00000+0  00000+0 0  9996", "line2": "2 64527   0.4712  77.7906 3652169  23.2254  72.5436  1.00231531  3642"}
